[{"OBJECT_NAME":"STARLINK-5972","OBJECT_ID":"2023-058AX","EPOCH":"2026-03-09T22:26:50.453952","MEAN_MOTION":15.05630926,"ECCENTRICITY":0.00018776,"INCLINATION":97.6041,"RA_OF_ASC_NODE":71.4638,"ARG_OF_PERICENTER":95.6991,"MEAN_ANOMALY":264.445,"EPHEMERIS_TYPE":0,"CLASSIFICATION_TYPE":"U","NORAD_CAT_ID":56362,"ELEMENT_SET_NO":999,"REV_AT_EPOCH":15823,"BSTAR":-0.00010329263,"MEAN_MOTION_DOT":-1.55e-5,"MEAN_MOTION_DDOT":0},{"OBJECT_NAME":"CZ-6A DEB","OBJECT_ID":"2022-151CX","EPOCH":"2026-03-09T21:16:17.872608","MEAN_MOTION":15.11183333,"ECCENTRICITY":0.00647114,"INCLINATION":99.0278,"RA_OF_ASC_NODE":217.0514,"ARG_OF_PERICENTER":197.6419,"MEAN_ANOMALY":162.256,"EPHEMERIS_TYPE":0,"CLASSIFICATION_TYPE":"U","NORAD_CAT_ID":54352,"ELEMENT_SET_NO":999,"REV_AT_EPOCH":10537,"BSTAR":0.0059033487,"MEAN_MOTION_DOT":0.00105485,"MEAN_MOTION_DDOT":0}]
